[{"OBJECT_NAME":"KINEIS-3B","OBJECT_ID":"2024-172E","EPOCH":"2026-03-09T17:21:30.663648","MEAN_MOTION":14.72290819,"ECCENTRICITY":0.00034024,"INCLINATION":98.028,"RA_OF_ASC_NODE":159.8522,"ARG_OF_PERICENTER":61.18,"MEAN_ANOMALY":298.9749,"EPHEMERIS_TYPE":0,"CLASSIFICATION_TYPE":"U","NORAD_CAT_ID":61224,"ELEMENT_SET_NO":999,"REV_AT_EPOCH":7871,"BSTAR":0.00046023739,"MEAN_MOTION_DOT":2.859e-5,"MEAN_MOTION_DDOT":0},{"OBJECT_NAME":"NOAA 16 DEB","OBJECT_ID":"2000-055EL","EPOCH":"2026-03-08T11:24:28.348704","MEAN_MOTION":14.64686831,"ECCENTRICITY":0.00364975,"INCLINATION":98.9451,"RA_OF_ASC_NODE":313.407,"ARG_OF_PERICENTER":288.2119,"MEAN_ANOMALY":71.511,"EPHEMERIS_TYPE":0,"CLASSIFICATION_TYPE":"U","NORAD_CAT_ID":41231,"ELEMENT_SET_NO":999,"REV_AT_EPOCH":53561,"BSTAR":0.0035669465,"MEAN_MOTION_DOT":0.00019159,"MEAN_MOTION_DDOT":0}]
